CCSDS_OMM_VERS = 2.0
CREATION_DATE  = 
ORIGINATOR     = 

OBJECT_NAME    = CZ-8A R/B
OBJECT_ID      = 2026-047K
CENTER_NAME    = EARTH
REF_FRAME      = TEME
TIME_SYSTEM    = UTC
MEAN_ELEMENT_THEORY = SGP/SGP4

EPOCH          = 2026-03-28T07:07:40.102752
MEAN_MOTION    = 14.12232008
ECCENTRICITY   = .0044755
INCLINATION    = 49.9539
RA_OF_ASC_NODE = 353.7305
ARG_OF_PERICENTER = 202.2366
MEAN_ANOMALY   = 157.6601

EPHEMERIS_TYPE = 0
CLASSIFICATION_TYPE = U
NORAD_CAT_ID   = 68138
ELEMENT_SET_NO = 999
REV_AT_EPOCH   = 218
BSTAR          = .30964478E-4
MEAN_MOTION_DOT = -.97E-6
MEAN_MOTION_DDOT = 0

CCSDS_OMM_VERS = 2.0
CREATION_DATE  = 
ORIGINATOR     = 

OBJECT_NAME    = SHIYAN-30 03
OBJECT_ID      = 2026-048A
CENTER_NAME    = EARTH
REF_FRAME      = TEME
TIME_SYSTEM    = UTC
MEAN_ELEMENT_THEORY = SGP/SGP4

EPOCH          = 2026-03-28T05:52:29.085312
MEAN_MOTION    = 14.91720163
ECCENTRICITY   = .0003264
INCLINATION    = 35.0011
RA_OF_ASC_NODE = 32.8588
ARG_OF_PERICENTER = 353.5957
MEAN_ANOMALY   = 6.4706

EPHEMERIS_TYPE = 0
CLASSIFICATION_TYPE = U
NORAD_CAT_ID   = 68139
ELEMENT_SET_NO = 999
REV_AT_EPOCH   = 227
BSTAR          = .28137562E-3
MEAN_MOTION_DOT = .286E-4
MEAN_MOTION_DDOT = 0

CCSDS_OMM_VERS = 2.0
CREATION_DATE  = 
ORIGINATOR     = 

OBJECT_NAME    = SHIYAN-30 04
OBJECT_ID      = 2026-048B
CENTER_NAME    = EARTH
REF_FRAME      = TEME
TIME_SYSTEM    = UTC
MEAN_ELEMENT_THEORY = SGP/SGP4

EPOCH          = 2026-03-28T05:53:30.739488
MEAN_MOTION    = 14.91728908
ECCENTRICITY   = .00017748
INCLINATION    = 34.9926
RA_OF_ASC_NODE = 32.8609
ARG_OF_PERICENTER = 349.6595
MEAN_ANOMALY   = 10.4073

EPHEMERIS_TYPE = 0
CLASSIFICATION_TYPE = U
NORAD_CAT_ID   = 68140
ELEMENT_SET_NO = 999
REV_AT_EPOCH   = 227
BSTAR          = .26913373E-3
MEAN_MOTION_DOT = .2735E-4
MEAN_MOTION_DDOT = 0

CCSDS_OMM_VERS = 2.0
CREATION_DATE  = 
ORIGINATOR     = 

OBJECT_NAME    = CZ-2D R/B
OBJECT_ID      = 2026-048C
CENTER_NAME    = EARTH
REF_FRAME      = TEME
TIME_SYSTEM    = UTC
MEAN_ELEMENT_THEORY = SGP/SGP4

EPOCH          = 2026-03-28T06:36:33.868800
MEAN_MOTION    = 14.95559774
ECCENTRICITY   = .00150379
INCLINATION    = 35.1306
RA_OF_ASC_NODE = 32.4760
ARG_OF_PERICENTER = 129.2747
MEAN_ANOMALY   = 230.9298

EPHEMERIS_TYPE = 0
CLASSIFICATION_TYPE = U
NORAD_CAT_ID   = 68141
ELEMENT_SET_NO = 999
REV_AT_EPOCH   = 228
BSTAR          = .15711015E-3
MEAN_MOTION_DOT = .1748E-4
MEAN_MOTION_DDOT = 0

CCSDS_OMM_VERS = 2.0
CREATION_DATE  = 
ORIGINATOR     = 

OBJECT_NAME    = STARLINK-36604
OBJECT_ID      = 2026-049A
CENTER_NAME    = EARTH
REF_FRAME      = TEME
TIME_SYSTEM    = UTC
MEAN_ELEMENT_THEORY = SGP/SGP4

EPOCH          = 2026-03-28T05:07:00.084288
MEAN_MOTION    = 15.80859890
ECCENTRICITY   = .0001061
INCLINATION    = 97.2841
RA_OF_ASC_NODE = 107.3636
ARG_OF_PERICENTER = 126.1750
MEAN_ANOMALY   = 233.9617

EPHEMERIS_TYPE = 0
CLASSIFICATION_TYPE = U
NORAD_CAT_ID   = 68142
ELEMENT_SET_NO = 999
REV_AT_EPOCH   = 233
BSTAR          = .42923029E-3
MEAN_MOTION_DOT = .83027E-3
MEAN_MOTION_DDOT = 0

CCSDS_OMM_VERS = 2.0
CREATION_DATE  = 
ORIGINATOR     = 

OBJECT_NAME    = STARLINK-36995
OBJECT_ID      = 2026-049B
CENTER_NAME    = EARTH
REF_FRAME      = TEME
TIME_SYSTEM    = UTC
MEAN_ELEMENT_THEORY = SGP/SGP4

EPOCH          = 2026-03-28T04:00:01.999584
MEAN_MOTION    = 15.80884303
ECCENTRICITY   = .00009256
INCLINATION    = 97.2838
RA_OF_ASC_NODE = 107.3152
ARG_OF_PERICENTER = 75.8621
MEAN_ANOMALY   = 24.0401

EPHEMERIS_TYPE = 0
CLASSIFICATION_TYPE = U
NORAD_CAT_ID   = 68143
ELEMENT_SET_NO = 999
REV_AT_EPOCH   = 359
BSTAR          = -.66139349E-3
MEAN_MOTION_DOT = -.125413E-2
MEAN_MOTION_DDOT = 0

CCSDS_OMM_VERS = 2.0
CREATION_DATE  = 
ORIGINATOR     = 

OBJECT_NAME    = STARLINK-37020
OBJECT_ID      = 2026-049C
CENTER_NAME    = EARTH
REF_FRAME      = TEME
TIME_SYSTEM    = UTC
MEAN_ELEMENT_THEORY = SGP/SGP4

EPOCH          = 2026-03-28T05:03:45.145152
MEAN_MOTION    = 15.80901302
ECCENTRICITY   = .00014971
INCLINATION    = 97.2835
RA_OF_ASC_NODE = 107.3665
ARG_OF_PERICENTER = 132.3297
MEAN_ANOMALY   = 227.8099

EPHEMERIS_TYPE = 0
CLASSIFICATION_TYPE = U
NORAD_CAT_ID   = 68144
ELEMENT_SET_NO = 999
REV_AT_EPOCH   = 233
BSTAR          = .10025571E-2
MEAN_MOTION_DOT = .197061E-2
MEAN_MOTION_DDOT = 0

CCSDS_OMM_VERS = 2.0
CREATION_DATE  = 
ORIGINATOR     = 

OBJECT_NAME    = STARLINK-36244
OBJECT_ID      = 2026-049D
CENTER_NAME    = EARTH
REF_FRAME      = TEME
TIME_SYSTEM    = UTC
MEAN_ELEMENT_THEORY = SGP/SGP4

EPOCH          = 2026-03-28T04:00:01.999584
MEAN_MOTION    = 15.75241131
ECCENTRICITY   = .00013264
INCLINATION    = 97.2838
RA_OF_ASC_NODE = 107.3164
ARG_OF_PERICENTER = 72.5119
MEAN_ANOMALY   = 29.9798

EPHEMERIS_TYPE = 0
CLASSIFICATION_TYPE = U
NORAD_CAT_ID   = 68145
ELEMENT_SET_NO = 999
REV_AT_EPOCH   = 360
BSTAR          = -.94568828E-3
MEAN_MOTION_DOT = -.139221E-2
MEAN_MOTION_DDOT = 0

CCSDS_OMM_VERS = 2.0
CREATION_DATE  = 
ORIGINATOR     = 

OBJECT_NAME    = STARLINK-36980
OBJECT_ID      = 2026-049E
CENTER_NAME    = EARTH
REF_FRAME      = TEME
TIME_SYSTEM    = UTC
MEAN_ELEMENT_THEORY = SGP/SGP4

EPOCH          = 2026-03-28T05:02:40.331328
MEAN_MOTION    = 15.80878306
ECCENTRICITY   = .00015192
INCLINATION    = 97.2839
RA_OF_ASC_NODE = 107.3665
ARG_OF_PERICENTER = 105.3201
MEAN_ANOMALY   = 254.8235

EPHEMERIS_TYPE = 0
CLASSIFICATION_TYPE = U
NORAD_CAT_ID   = 68146
ELEMENT_SET_NO = 999
REV_AT_EPOCH   = 233
BSTAR          = .6397402E-3
MEAN_MOTION_DOT = .124517E-2
MEAN_MOTION_DDOT = 0

CCSDS_OMM_VERS = 2.0
CREATION_DATE  = 
ORIGINATOR     = 

OBJECT_NAME    = STARLINK-37055
OBJECT_ID      = 2026-049F
CENTER_NAME    = EARTH
REF_FRAME      = TEME
TIME_SYSTEM    = UTC
MEAN_ELEMENT_THEORY = SGP/SGP4

EPOCH          = 2026-03-28T05:04:50.253600
MEAN_MOTION    = 15.80875621
ECCENTRICITY   = .00012534
INCLINATION    = 97.2839
RA_OF_ASC_NODE = 107.3645
ARG_OF_PERICENTER = 110.5636
MEAN_ANOMALY   = 249.5767

EPHEMERIS_TYPE = 0
CLASSIFICATION_TYPE = U
NORAD_CAT_ID   = 68147
ELEMENT_SET_NO = 999
REV_AT_EPOCH   = 233
BSTAR          = .59941118E-3
MEAN_MOTION_DOT = .116535E-2
MEAN_MOTION_DDOT = 0

CCSDS_OMM_VERS = 2.0
CREATION_DATE  = 
ORIGINATOR     = 

OBJECT_NAME    = STARLINK-36981
OBJECT_ID      = 2026-049G
CENTER_NAME    = EARTH
REF_FRAME      = TEME
TIME_SYSTEM    = UTC
MEAN_ELEMENT_THEORY = SGP/SGP4

EPOCH          = 2026-03-28T05:00:30.510144
MEAN_MOTION    = 15.80871461
ECCENTRICITY   = .00015003
INCLINATION    = 97.2840
RA_OF_ASC_NODE = 107.3685
ARG_OF_PERICENTER = 113.4742
MEAN_ANOMALY   = 246.6684

EPHEMERIS_TYPE = 0
CLASSIFICATION_TYPE = U
NORAD_CAT_ID   = 68148
ELEMENT_SET_NO = 999
REV_AT_EPOCH   = 233
BSTAR          = .48501803E-3
MEAN_MOTION_DOT = .94008E-3
MEAN_MOTION_DDOT = 0

CCSDS_OMM_VERS = 2.0
CREATION_DATE  = 
ORIGINATOR     = 

OBJECT_NAME    = STARLINK-36992
OBJECT_ID      = 2026-049H
CENTER_NAME    = EARTH
REF_FRAME      = TEME
TIME_SYSTEM    = UTC
MEAN_ELEMENT_THEORY = SGP/SGP4

EPOCH          = 2026-03-28T04:59:25.460448
MEAN_MOTION    = 15.80954471
ECCENTRICITY   = .00011564
INCLINATION    = 97.2839
RA_OF_ASC_NODE = 107.3697
ARG_OF_PERICENTER = 94.2843
MEAN_ANOMALY   = 265.8557

EPHEMERIS_TYPE = 0
CLASSIFICATION_TYPE = U
NORAD_CAT_ID   = 68149
ELEMENT_SET_NO = 999
REV_AT_EPOCH   = 233
BSTAR          = .15618362E-2
MEAN_MOTION_DOT = .31194E-2
MEAN_MOTION_DDOT = 0

CCSDS_OMM_VERS = 2.0
CREATION_DATE  = 
ORIGINATOR     = 

OBJECT_NAME    = STARLINK-37060
OBJECT_ID      = 2026-049J
CENTER_NAME    = EARTH
REF_FRAME      = TEME
TIME_SYSTEM    = UTC
MEAN_ELEMENT_THEORY = SGP/SGP4

EPOCH          = 2026-03-28T04:00:01.999584
MEAN_MOTION    = 15.80845687
ECCENTRICITY   = .00013768
INCLINATION    = 97.2841
RA_OF_ASC_NODE = 107.3284
ARG_OF_PERICENTER = 96.9064
MEAN_ANOMALY   = 32.9330

EPHEMERIS_TYPE = 0
CLASSIFICATION_TYPE = U
NORAD_CAT_ID   = 68150
ELEMENT_SET_NO = 999
REV_AT_EPOCH   = 359
BSTAR          = -.25050949E-3
MEAN_MOTION_DOT = -.47929E-3
MEAN_MOTION_DDOT = 0

CCSDS_OMM_VERS = 2.0
CREATION_DATE  = 
ORIGINATOR     = 

OBJECT_NAME    = STARLINK-37073
OBJECT_ID      = 2026-049K
CENTER_NAME    = EARTH
REF_FRAME      = TEME
TIME_SYSTEM    = UTC
MEAN_ELEMENT_THEORY = SGP/SGP4

EPOCH          = 2026-03-28T04:00:01.999584
MEAN_MOTION    = 15.80870125
ECCENTRICITY   = .00013055
INCLINATION    = 97.2841
RA_OF_ASC_NODE = 107.3300
ARG_OF_PERICENTER = 91.9776
MEAN_ANOMALY   = 42.1204

EPHEMERIS_TYPE = 0
CLASSIFICATION_TYPE = U
NORAD_CAT_ID   = 68151
ELEMENT_SET_NO = 999
REV_AT_EPOCH   = 359
BSTAR          = -.39385564E-3
MEAN_MOTION_DOT = -.75124E-3
MEAN_MOTION_DDOT = 0

CCSDS_OMM_VERS = 2.0
CREATION_DATE  = 
ORIGINATOR     = 

OBJECT_NAME    = STARLINK-37049
OBJECT_ID      = 2026-049L
CENTER_NAME    = EARTH
REF_FRAME      = TEME
TIME_SYSTEM    = UTC
MEAN_ELEMENT_THEORY = SGP/SGP4

EPOCH          = 2026-03-28T04:00:01.999584
MEAN_MOTION    = 15.80867716
ECCENTRICITY   = .0001393
INCLINATION    = 97.2842
RA_OF_ASC_NODE = 107.3322
ARG_OF_PERICENTER = 90.5224
MEAN_ANOMALY   = 47.8443

EPHEMERIS_TYPE = 0
CLASSIFICATION_TYPE = U
NORAD_CAT_ID   = 68152
ELEMENT_SET_NO = 999
REV_AT_EPOCH   = 359
BSTAR          = -.42829672E-3
MEAN_MOTION_DOT = -.81612E-3
MEAN_MOTION_DDOT = 0

